[
    {
        "Altitude(m)": 705375.5331284347,
        "Argument of Periapsis(deg)": 0.009112096949301655,
        "Eccentricity": 0.0,
        "Inclination(deg)": 45.0,
        "Latitude(deg)": 36.124953485463585,
        "Longitude(deg)": -27.161712145495784,
        "Mean Anomaly(deg)": -236.22792668201538,
        "RAAN(deg)": 299.99139844683344,
        "Satellite Name": "Constellation 1 1327",
        "Satellite Number": 1327,
        "Semi-Major Axis(m)": 7083131.272910544,
        "Time(s)": 152
    },
    {
        "Altitude(m)": 705369.6784805981,
        "Argument of Periapsis(deg)": 0.009172044955547059,
        "Eccentricity": 0.0,
        "Inclination(deg)": 45.0,
        "Latitude(deg)": 36.09530659205303,
        "Longitude(deg)": -27.100293318530138,
        "Mean Anomaly(deg)": -236.1672255417654,
        "RAAN(deg)": 299.99134185766786,
        "Satellite Name": "Constellation 1 1327",
        "Satellite Number": 1327,
        "Semi-Major Axis(m)": 7083131.272910544,
        "Time(s)": 153
    },
    {
        "Altitude(m)": 705363.8209303819,
        "Argument of Periapsis(deg)": 0.009231992961792466,
        "Eccentricity": 0.0,
        "Inclination(deg)": 45.0,
        "Latitude(deg)": 36.06562375616032,
        "Longitude(deg)": -27.03892369291823,
        "Mean Anomaly(deg)": -236.10652440151554,
        "RAAN(deg)": 299.9912852685023,
        "Satellite Name": "Constellation 1 1327",
        "Satellite Number": 1327,
        "Semi-Major Axis(m)": 7083131.272910544,
        "Time(s)": 154
    },
    {
        "Altitude(m)": 705357.960514701,
        "Argument of Periapsis(deg)": 0.009291940968037872,
        "Eccentricity": 0.0,
        "Inclination(deg)": 45.0,
        "Latitude(deg)": 36.035905043008725,
        "Longitude(deg)": -26.977603237532488,
        "Mean Anomaly(deg)": -236.04582326126567,
        "RAAN(deg)": 299.99122867933676,
        "Satellite Name": "Constellation 1 1327",
        "Satellite Number": 1327,
        "Semi-Major Axis(m)": 7083131.272910544,
        "Time(s)": 155
    },
    {
        "Altitude(m)": 705352.0972705082,
        "Argument of Periapsis(deg)": 0.009351888974283276,
        "Eccentricity": 0.0,
        "Inclination(deg)": 45.0,
        "Latitude(deg)": 36.006150517765,
        "Longitude(deg)": -26.916332089095448,
        "Mean Anomaly(deg)": -235.98512212101576,
        "RAAN(deg)": 299.9911720901712,
        "Satellite Name": "Constellation 1 1327",
        "Satellite Number": 1327,
        "Semi-Major Axis(m)": 7083131.272910544,
        "Time(s)": 156
    },
    {
        "Altitude(m)": 705346.2312347755,
        "Argument of Periapsis(deg)": 0.00941183698052868,
        "Eccentricity": 0.0,
        "Inclination(deg)": 45.0,
        "Latitude(deg)": 35.976360245540036,
        "Longitude(deg)": -26.85510987979373,
        "Mean Anomaly(deg)": -235.92442098076586,
        "RAAN(deg)": 299.99111550100565,
        "Satellite Name": "Constellation 1 1327",
        "Satellite Number": 1327,
        "Semi-Major Axis(m)": 7083131.272910544,
        "Time(s)": 157
    },
    {
        "Altitude(m)": 705340.3624445136,
        "Argument of Periapsis(deg)": 0.009471784986774088,
        "Eccentricity": 0.0,
        "Inclination(deg)": 45.0,
        "Latitude(deg)": 35.94653429138696,
        "Longitude(deg)": -26.79393674586034,
        "Mean Anomaly(deg)": -235.86371984051593,
        "RAAN(deg)": 299.99105891184,
        "Satellite Name": "Constellation 1 1327",
        "Satellite Number": 1327,
        "Semi-Major Axis(m)": 7083131.272910544,
        "Time(s)": 158
    },
    {
        "Altitude(m)": 705334.490936754,
        "Argument of Periapsis(deg)": 0.009531732993019492,
        "Eccentricity": 0.0,
        "Inclination(deg)": 45.0,
        "Latitude(deg)": 35.916672720302415,
        "Longitude(deg)": -26.732812655189214,
        "Mean Anomaly(deg)": -235.80301870026605,
        "RAAN(deg)": 299.99100232267443,
        "Satellite Name": "Constellation 1 1327",
        "Satellite Number": 1327,
        "Semi-Major Axis(m)": 7083131.272910544,
        "Time(s)": 159
    },
    {
        "Altitude(m)": 705328.6167485652,
        "Argument of Periapsis(deg)": 0.009591680999264898,
        "Eccentricity": 0.0,
        "Inclination(deg)": 45.0,
        "Latitude(deg)": 35.886775597225466,
        "Longitude(deg)": -26.671737575432587,
        "Mean Anomaly(deg)": -235.74231756001615,
        "RAAN(deg)": 299.9909457335089,
        "Satellite Name": "Constellation 1 1327",
        "Satellite Number": 1327,
        "Semi-Major Axis(m)": 7083131.272910544,
        "Time(s)": 160
    },
    {
        "Altitude(m)": 705322.7399170401,
        "Argument of Periapsis(deg)": 0.009651629005510304,
        "Eccentricity": 0.0,
        "Inclination(deg)": 45.0,
        "Latitude(deg)": 35.8568429870376,
        "Longitude(deg)": -26.61071147400265,
        "Mean Anomaly(deg)": -235.68161641976621,
        "RAAN(deg)": 299.9908891443433,
        "Satellite Name": "Constellation 1 1327",
        "Satellite Number": 1327,
        "Semi-Major Axis(m)": 7083131.272910544,
        "Time(s)": 161
    },
    {
        "Altitude(m)": 705316.8604793019,
        "Argument of Periapsis(deg)": 0.00971157701175571,
        "Eccentricity": 0.0,
        "Inclination(deg)": 45.0,
        "Latitude(deg)": 35.82687495456266,
        "Longitude(deg)": -26.54973431807314,
        "Mean Anomaly(deg)": -235.62091527951634,
        "RAAN(deg)": 299.9908325551778,
        "Satellite Name": "Constellation 1 1327",
        "Satellite Number": 1327,
        "Semi-Major Axis(m)": 7083131.272910544,
        "Time(s)": 162
    },
    {
        "Altitude(m)": 705310.9784725021,
        "Argument of Periapsis(deg)": 0.009771525018001118,
        "Eccentricity": 0.0,
        "Inclination(deg)": 45.0,
        "Latitude(deg)": 35.796871564566004,
        "Longitude(deg)": -26.48880624267703,
        "Mean Anomaly(deg)": -235.56021413926644,
        "RAAN(deg)": 299.99077596601217,
        "Satellite Name": "Constellation 1 1327",
        "Satellite Number": 1327,
        "Semi-Major Axis(m)": 7083131.272910544,
        "Time(s)": 163
    },
    {
        "Altitude(m)": 705305.0939338255,
        "Argument of Periapsis(deg)": 0.00983147302424652,
        "Eccentricity": 0.0,
        "Inclination(deg)": 45.0,
        "Latitude(deg)": 35.76683288175559,
        "Longitude(deg)": -26.427926878320466,
        "Mean Anomaly(deg)": -235.4995129990165,
        "RAAN(deg)": 299.9907193768466,
        "Satellite Name": "Constellation 1 1327",
        "Satellite Number": 1327,
        "Semi-Major Axis(m)": 7083131.272910544,
        "Time(s)": 164
    },
    {
        "Altitude(m)": 705299.2069004767,
        "Argument of Periapsis(deg)": 0.009891421030491928,
        "Eccentricity": 0.0,
        "Inclination(deg)": 45.0,
        "Latitude(deg)": 35.73675897078014,
        "Longitude(deg)": -26.367096359566023,
        "Mean Anomaly(deg)": -235.43881185876668,
        "RAAN(deg)": 299.99066278768106,
        "Satellite Name": "Constellation 1 1327",
        "Satellite Number": 1327,
        "Semi-Major Axis(m)": 7083131.272910544,
        "Time(s)": 165
    },
    {
        "Altitude(m)": 705293.3174096966,
        "Argument of Periapsis(deg)": 0.009951369036737332,
        "Eccentricity": 0.0,
        "Inclination(deg)": 45.0,
        "Latitude(deg)": 35.706649896229735,
        "Longitude(deg)": -26.30631465264531,
        "Mean Anomaly(deg)": -235.37811071851675,
        "RAAN(deg)": 299.9906061985155,
        "Satellite Name": "Constellation 1 1327",
        "Satellite Number": 1327,
        "Semi-Major Axis(m)": 7083131.272910544,
        "Time(s)": 166
    },
    {
        "Altitude(m)": 705287.4254987459,
        "Argument of Periapsis(deg)": 0.010011317042982738,
        "Eccentricity": 0.0,
        "Inclination(deg)": 45.0,
        "Latitude(deg)": 35.67650572263558,
        "Longitude(deg)": -26.245581723558015,
        "Mean Anomaly(deg)": -235.3174095782669,
        "RAAN(deg)": 299.99054960934996,
        "Satellite Name": "Constellation 1 1327",
        "Satellite Number": 1327,
        "Semi-Major Axis(m)": 7083131.272910544,
        "Time(s)": 167
    },
    {
        "Altitude(m)": 705281.5312049227,
        "Argument of Periapsis(deg)": 0.010071265049228144,
        "Eccentricity": 0.0,
        "Inclination(deg)": 45.0,
        "Latitude(deg)": 35.646326514469635,
        "Longitude(deg)": -26.184897538072995,
        "Mean Anomaly(deg)": -235.25670843801694,
        "RAAN(deg)": 299.9904930201843,
        "Satellite Name": "Constellation 1 1327",
        "Satellite Number": 1327,
        "Semi-Major Axis(m)": 7083131.272910544,
        "Time(s)": 168
    },
    {
        "Altitude(m)": 705275.634565546,
        "Argument of Periapsis(deg)": 0.01013121305547355,
        "Eccentricity": 0.0,
        "Inclination(deg)": 45.0,
        "Latitude(deg)": 35.61611233614455,
        "Longitude(deg)": -26.124262061729645,
        "Mean Anomaly(deg)": -235.19600729776704,
        "RAAN(deg)": 299.99043643101874,
        "Satellite Name": "Constellation 1 1327",
        "Satellite Number": 1327,
        "Semi-Major Axis(m)": 7083131.272910544,
        "Time(s)": 169
    },
    {
        "Altitude(m)": 705269.7356179646,
        "Argument of Periapsis(deg)": 0.010191161061718957,
        "Eccentricity": 0.0,
        "Inclination(deg)": 45.0,
        "Latitude(deg)": 35.58586325201324,
        "Longitude(deg)": -26.063675259838845,
        "Mean Anomaly(deg)": -235.13530615751714,
        "RAAN(deg)": 299.9903798418532,
        "Satellite Name": "Constellation 1 1327",
        "Satellite Number": 1327,
        "Semi-Major Axis(m)": 7083131.272910544,
        "Time(s)": 170
    }
]